IRIDIUM 63              
1 25286U 98021B   25264.44142986  .00000647  00000+0  21341-3 0  9990
2 25286  86.3985  41.7216 0002010  87.2084 272.9343 14.36617691437667
IRIDIUM 69              
1 25319U 98026A   25264.50560532  .00000707  00000+0  21381-3 0  9991
2 25319  86.3949  54.6843 0004387  78.1453 282.0238 14.41051847436936
IRIDIUM 71              
1 25320U 98026B   25264.63896591  .00000447  00000+0  13241-3 0  9991
2 25320  86.3960  49.3051 0004043 109.5850 250.5786 14.41230706437484
IRIDIUM 73              
1 25344U 98032C   25264.55841271  .00000849  00000+0  20607-3 0  9990
2 25344  86.4474   5.8867 0002586  79.1647 280.9850 14.51824964444549
IRIDIUM 82              
1 25467U 98051A   25264.48721982  .00037186  00000+0  93205-3 0  9993
2 25467  86.3613  62.1925 0075424 290.0420  69.2724 15.36929520438723
